QIANFAN-1               
1 60379U 24140A   26025.61275252  .00000192  00000+0  27779-3 0  9997
2 60379  88.9773 294.7469 0019256  86.9775 273.3579 13.50990533 73278
QIANFAN-2               
1 60380U 24140B   26025.56752453  .00000192  00000+0  27841-3 0  9996
2 60380  88.9759 294.5849 0014546  62.3024 297.9601 13.50994624 73325
QIANFAN-3               
1 60381U 24140C   26025.57568436  .00000206  00000+0  30035-3 0  9999
2 60381  88.9751 294.7134 0015709  73.3194 286.9681 13.50995086 73238
QIANFAN-4               
1 60382U 24140D   26025.62505670  .00000208  00000+0  30302-3 0  9996
2 60382  88.9776 294.6170 0014787  64.4268 295.8409 13.50990745 73361
QIANFAN-5               
1 60383U 24140E   26025.60045668  .00000199  00000+0  28957-3 0  9993
2 60383  88.9751 294.7362 0016963  83.3217 276.9864 13.50992890 73224
QIANFAN-6               
1 60384U 24140F   26025.62102612  .00000196  00000+0  28409-3 0  9998
2 60384  88.9778 294.4920 0014927  69.7107 290.5647 13.50992822 73423
QIANFAN-7               
1 60385U 24140G   26025.61982807  .00001056  00000+0  42219-3 0  9991
2 60385  88.9786 288.5749 0012837 257.0357 102.9404 14.27730663 76656
QIANFAN-8               
1 60386U 24140H   26025.55523488  .00000201  00000+0  29163-3 0  9995
2 60386  88.9780 294.7370 0018392  71.7681 288.5470 13.50994206 73261
